1998-067XK              
1 65731U 98067XK  26022.77533001  .00178156  00000+0  10729-2 0  9998
2 65731  51.6251 287.5427 0004361 130.3104 229.8278 15.76616541 19599
RSP-03                  
1 65732U 98067XL  26021.83449920  .00334127  00000+0  13899-2 0  9994
2 65732  51.6224 290.2233 0005585 139.2890 220.8531 15.84251727 19486
YOTSUBA-KULOVER         
1 65941U 98067XN  26020.21592390  .00230795  00000+0  21695-2 0  9996
2 65941  51.6282 305.7235 0003867 126.2942 233.8411 15.65848775 15875
BOTAN                   
1 65942U 98067XP  26022.82130160  .00208069  00000+0  13373-2 0  9992
2 65942  51.6234 290.0995 0005263 154.0630 206.0634 15.75033846 16312
E-KAGAKU-1              
1 65943U 98067XQ  26022.44907835  .00110990  00000+0  10339-2 0  9996
2 65943  51.6284 294.3922 0003065 151.0919 209.0248 15.66506808 16227
HRC MONOBLOCK CAMERA    
1 66052U 98067XR  26021.99314108  .00054522  00000+0  73207-3 0  9994
2 66052  51.6298 300.3420 0000824  27.5149 332.5886 15.57379554 15109
HTV-X1                  
1 66174U 25241A   26022.94831487  .00013618  00000+0  24973-3 0  9990
2 66174  51.6328 298.4677 0007749  48.1765 311.9884 15.49569219   513
SZ-21 MODULE            
1 66515U 25246C   26022.60595901  .00035014  00000+0  34739-3 0  9990
2 66515  41.4760 126.2942 0003066 222.5828 137.4775 15.65057318 10845
SHENZHOU-22             
1 66645U 25272A   26022.68626719  .00022143  00000+0  25974-3 0  9993
2 66645  41.4670 127.8030 0010413 338.7052  21.3352 15.60906900267646
SOYUZ-MS 28             
1 66664U 25275A   26022.94831487  .00013618  00000+0  24973-3 0  9991
2 66664  51.6328 298.4677 0007749  48.1765 311.9884 15.49569219  1282
DUPLEX                  
1 66906U 98067XS  26022.88117546  .00027455  00000+0  43803-3 0  9992
2 66906  51.6313 298.0211 0002025  45.8973 314.2183 15.52999107  8004
1998-067XT              
1 66907U 98067XT  26022.80783589  .00094313  00000+0  12300-2 0  9995
2 66907  51.6294 297.5319 0003344 105.0099 255.1264 15.57918316  8000
