CCSDS_OMM_VERS = 2.0
CREATION_DATE  = 
ORIGINATOR     = 

OBJECT_NAME    = 1998-067XK
OBJECT_ID      = 1998-067XK
CENTER_NAME    = EARTH
REF_FRAME      = TEME
TIME_SYSTEM    = UTC
MEAN_ELEMENT_THEORY = SGP/SGP4

EPOCH          = 2026-01-22T18:36:28.512864
MEAN_MOTION    = 15.76616541
ECCENTRICITY   = .00043617
INCLINATION    = 51.6251
RA_OF_ASC_NODE = 287.5427
ARG_OF_PERICENTER = 130.3104
MEAN_ANOMALY   = 229.8278

EPHEMERIS_TYPE = 0
CLASSIFICATION_TYPE = U
NORAD_CAT_ID   = 65731
ELEMENT_SET_NO = 999
REV_AT_EPOCH   = 1959
BSTAR          = .10729157E-2
MEAN_MOTION_DOT = .178156E-2
MEAN_MOTION_DDOT = 0

CCSDS_OMM_VERS = 2.0
CREATION_DATE  = 
ORIGINATOR     = 

OBJECT_NAME    = RSP-03
OBJECT_ID      = 1998-067XL
CENTER_NAME    = EARTH
REF_FRAME      = TEME
TIME_SYSTEM    = UTC
MEAN_ELEMENT_THEORY = SGP/SGP4

EPOCH          = 2026-01-21T20:01:40.730880
MEAN_MOTION    = 15.84251727
ECCENTRICITY   = .00055855
INCLINATION    = 51.6224
RA_OF_ASC_NODE = 290.2233
ARG_OF_PERICENTER = 139.2890
MEAN_ANOMALY   = 220.8531

EPHEMERIS_TYPE = 0
CLASSIFICATION_TYPE = U
NORAD_CAT_ID   = 65732
ELEMENT_SET_NO = 999
REV_AT_EPOCH   = 1948
BSTAR          = .13899047E-2
MEAN_MOTION_DOT = .334127E-2
MEAN_MOTION_DDOT = 0

CCSDS_OMM_VERS = 2.0
CREATION_DATE  = 
ORIGINATOR     = 

OBJECT_NAME    = YOTSUBA-KULOVER
OBJECT_ID      = 1998-067XN
CENTER_NAME    = EARTH
REF_FRAME      = TEME
TIME_SYSTEM    = UTC
MEAN_ELEMENT_THEORY = SGP/SGP4

EPOCH          = 2026-01-20T05:10:55.824960
MEAN_MOTION    = 15.65848775
ECCENTRICITY   = .00038676
INCLINATION    = 51.6282
RA_OF_ASC_NODE = 305.7235
ARG_OF_PERICENTER = 126.2942
MEAN_ANOMALY   = 233.8411

EPHEMERIS_TYPE = 0
CLASSIFICATION_TYPE = U
NORAD_CAT_ID   = 65941
ELEMENT_SET_NO = 999
REV_AT_EPOCH   = 1587
BSTAR          = .21695267E-2
MEAN_MOTION_DOT = .230795E-2
MEAN_MOTION_DDOT = 0

CCSDS_OMM_VERS = 2.0
CREATION_DATE  = 
ORIGINATOR     = 

OBJECT_NAME    = BOTAN
OBJECT_ID      = 1998-067XP
CENTER_NAME    = EARTH
REF_FRAME      = TEME
TIME_SYSTEM    = UTC
MEAN_ELEMENT_THEORY = SGP/SGP4

EPOCH          = 2026-01-22T19:42:40.458240
MEAN_MOTION    = 15.75033846
ECCENTRICITY   = .00052633
INCLINATION    = 51.6234
RA_OF_ASC_NODE = 290.0995
ARG_OF_PERICENTER = 154.0630
MEAN_ANOMALY   = 206.0634

EPHEMERIS_TYPE = 0
CLASSIFICATION_TYPE = U
NORAD_CAT_ID   = 65942
ELEMENT_SET_NO = 999
REV_AT_EPOCH   = 1631
BSTAR          = .13372831E-2
MEAN_MOTION_DOT = .208069E-2
MEAN_MOTION_DDOT = 0

CCSDS_OMM_VERS = 2.0
CREATION_DATE  = 
ORIGINATOR     = 

OBJECT_NAME    = E-KAGAKU-1
OBJECT_ID      = 1998-067XQ
CENTER_NAME    = EARTH
REF_FRAME      = TEME
TIME_SYSTEM    = UTC
MEAN_ELEMENT_THEORY = SGP/SGP4

EPOCH          = 2026-01-22T10:46:40.369440
MEAN_MOTION    = 15.66506808
ECCENTRICITY   = .00030654
INCLINATION    = 51.6284
RA_OF_ASC_NODE = 294.3922
ARG_OF_PERICENTER = 151.0919
MEAN_ANOMALY   = 209.0248

EPHEMERIS_TYPE = 0
CLASSIFICATION_TYPE = U
NORAD_CAT_ID   = 65943
ELEMENT_SET_NO = 999
REV_AT_EPOCH   = 1622
BSTAR          = .10339171E-2
MEAN_MOTION_DOT = .11099E-2
MEAN_MOTION_DDOT = 0

CCSDS_OMM_VERS = 2.0
CREATION_DATE  = 
ORIGINATOR     = 

OBJECT_NAME    = HRC MONOBLOCK CAMERA
OBJECT_ID      = 1998-067XR
CENTER_NAME    = EARTH
REF_FRAME      = TEME
TIME_SYSTEM    = UTC
MEAN_ELEMENT_THEORY = SGP/SGP4

EPOCH          = 2026-01-21T23:50:07.389312
MEAN_MOTION    = 15.57379554
ECCENTRICITY   = .0000824
INCLINATION    = 51.6298
RA_OF_ASC_NODE = 300.3420
ARG_OF_PERICENTER = 27.5149
MEAN_ANOMALY   = 332.5886

EPHEMERIS_TYPE = 0
CLASSIFICATION_TYPE = U
NORAD_CAT_ID   = 66052
ELEMENT_SET_NO = 999
REV_AT_EPOCH   = 1510
BSTAR          = .73207212E-3
MEAN_MOTION_DOT = .54522E-3
MEAN_MOTION_DDOT = 0

CCSDS_OMM_VERS = 2.0
CREATION_DATE  = 
ORIGINATOR     = 

OBJECT_NAME    = HTV-X1
OBJECT_ID      = 2025-241A
CENTER_NAME    = EARTH
REF_FRAME      = TEME
TIME_SYSTEM    = UTC
MEAN_ELEMENT_THEORY = SGP/SGP4

EPOCH          = 2026-01-22T22:45:34.404768
MEAN_MOTION    = 15.49569219
ECCENTRICITY   = .00077494
INCLINATION    = 51.6328
RA_OF_ASC_NODE = 298.4677
ARG_OF_PERICENTER = 48.1765
MEAN_ANOMALY   = 311.9884

EPHEMERIS_TYPE = 0
CLASSIFICATION_TYPE = U
NORAD_CAT_ID   = 66174
ELEMENT_SET_NO = 999
REV_AT_EPOCH   = 51
BSTAR          = .24972681E-3
MEAN_MOTION_DOT = .13618E-3
MEAN_MOTION_DDOT = 0

CCSDS_OMM_VERS = 2.0
CREATION_DATE  = 
ORIGINATOR     = 

OBJECT_NAME    = SZ-21 MODULE
OBJECT_ID      = 2025-246C
CENTER_NAME    = EARTH
REF_FRAME      = TEME
TIME_SYSTEM    = UTC
MEAN_ELEMENT_THEORY = SGP/SGP4

EPOCH          = 2026-01-22T14:32:34.858464
MEAN_MOTION    = 15.65057318
ECCENTRICITY   = .00030664
INCLINATION    = 41.4760
RA_OF_ASC_NODE = 126.2942
ARG_OF_PERICENTER = 222.5828
MEAN_ANOMALY   = 137.4775

EPHEMERIS_TYPE = 0
CLASSIFICATION_TYPE = U
NORAD_CAT_ID   = 66515
ELEMENT_SET_NO = 999
REV_AT_EPOCH   = 1084
BSTAR          = .34738616E-3
MEAN_MOTION_DOT = .35014E-3
MEAN_MOTION_DDOT = 0

CCSDS_OMM_VERS = 2.0
CREATION_DATE  = 
ORIGINATOR     = 

OBJECT_NAME    = SHENZHOU-22
OBJECT_ID      = 2025-272A
CENTER_NAME    = EARTH
REF_FRAME      = TEME
TIME_SYSTEM    = UTC
MEAN_ELEMENT_THEORY = SGP/SGP4

EPOCH          = 2026-01-22T16:28:13.485216
MEAN_MOTION    = 15.60906900
ECCENTRICITY   = .0010413
INCLINATION    = 41.4670
RA_OF_ASC_NODE = 127.8030
ARG_OF_PERICENTER = 338.7052
MEAN_ANOMALY   = 21.3352

EPHEMERIS_TYPE = 0
CLASSIFICATION_TYPE = U
NORAD_CAT_ID   = 66645
ELEMENT_SET_NO = 999
REV_AT_EPOCH   = 26764
BSTAR          = .25973579E-3
MEAN_MOTION_DOT = .22143E-3
MEAN_MOTION_DDOT = 0

CCSDS_OMM_VERS = 2.0
CREATION_DATE  = 
ORIGINATOR     = 

OBJECT_NAME    = SOYUZ-MS 28
OBJECT_ID      = 2025-275A
CENTER_NAME    = EARTH
REF_FRAME      = TEME
TIME_SYSTEM    = UTC
MEAN_ELEMENT_THEORY = SGP/SGP4

EPOCH          = 2026-01-22T22:45:34.404768
MEAN_MOTION    = 15.49569219
ECCENTRICITY   = .00077494
INCLINATION    = 51.6328
RA_OF_ASC_NODE = 298.4677
ARG_OF_PERICENTER = 48.1765
MEAN_ANOMALY   = 311.9884

EPHEMERIS_TYPE = 0
CLASSIFICATION_TYPE = U
NORAD_CAT_ID   = 66664
ELEMENT_SET_NO = 999
REV_AT_EPOCH   = 128
BSTAR          = .24972681E-3
MEAN_MOTION_DOT = .13618E-3
MEAN_MOTION_DDOT = 0

CCSDS_OMM_VERS = 2.0
CREATION_DATE  = 
ORIGINATOR     = 

OBJECT_NAME    = DUPLEX
OBJECT_ID      = 1998-067XS
CENTER_NAME    = EARTH
REF_FRAME      = TEME
TIME_SYSTEM    = UTC
MEAN_ELEMENT_THEORY = SGP/SGP4

EPOCH          = 2026-01-22T21:08:53.559744
MEAN_MOTION    = 15.52999107
ECCENTRICITY   = .00020259
INCLINATION    = 51.6313
RA_OF_ASC_NODE = 298.0211
ARG_OF_PERICENTER = 45.8973
MEAN_ANOMALY   = 314.2183

EPHEMERIS_TYPE = 0
CLASSIFICATION_TYPE = U
NORAD_CAT_ID   = 66906
ELEMENT_SET_NO = 999
REV_AT_EPOCH   = 800
BSTAR          = .43803466E-3
MEAN_MOTION_DOT = .27455E-3
MEAN_MOTION_DDOT = 0

CCSDS_OMM_VERS = 2.0
CREATION_DATE  = 
ORIGINATOR     = 

OBJECT_NAME    = 1998-067XT
OBJECT_ID      = 1998-067XT
CENTER_NAME    = EARTH
REF_FRAME      = TEME
TIME_SYSTEM    = UTC
MEAN_ELEMENT_THEORY = SGP/SGP4

EPOCH          = 2026-01-22T19:23:17.020896
MEAN_MOTION    = 15.57918316
ECCENTRICITY   = .0003344
INCLINATION    = 51.6294
RA_OF_ASC_NODE = 297.5319
ARG_OF_PERICENTER = 105.0099
MEAN_ANOMALY   = 255.1264

EPHEMERIS_TYPE = 0
CLASSIFICATION_TYPE = U
NORAD_CAT_ID   = 66907
ELEMENT_SET_NO = 999
REV_AT_EPOCH   = 800
BSTAR          = .12299904E-2
MEAN_MOTION_DOT = .94313E-3
MEAN_MOTION_DDOT = 0

